{
  "type": "FeatureCollection",
  "features": [
    {
      "type": "Feature",
      "properties": {
        "norad_id": 43823,
        "name": "GEO-KOMPSAT-2A",
        "group": "weather",
        "lat": -0.016778759873443894,
        "lon": -7.195770491306161,
        "alt_km": 35786.93677403499,
        "timestamp": "2025-12-26T08:37:54.213421+00:00",
        "meta_object_name": "GEO-KOMPSAT-2A",
        "meta_object_id": "2018-100A",
        "meta_epoch": "2025-12-25T12:13:38.614080",
        "meta_mean_motion": 1.00268534,
        "meta_eccentricity": 2.51e-05,
        "meta_inclination": 0.0434,
        "meta_ra_of_asc_node": 172.7377,
        "meta_arg_of_pericenter": 259.9479,
        "meta_mean_anomaly": 333.2359,
        "meta_ephemeris_type": 0,
        "meta_classification_type": "U",
        "meta_norad_cat_id": 43823,
        "meta_element_set_no": 999,
        "meta_rev_at_epoch": 2588,
        "meta_bstar": 0,
        "meta_mean_motion_dot": -3.22e-06,
        "meta_mean_motion_ddot": 0,
        "tle_line1": "1 43823U 18100A   25359.50947470 -.00000322  00000+0  00000+0 0  9996",
        "tle_line2": "2 43823   0.0434 172.7377 0000251 259.9479 333.2359  1.00268534 25880"
      },
      "geometry": {
        "type": "Point",
        "coordinates": [
          -7.195770491306161,
          -0.016778759873443894
        ]
      }
    },
    {
      "type": "Feature",
      "properties": {
        "norad_id": 44387,
        "name": "METEOR-M2 2",
        "group": "weather",
        "lat": -28.449068410603626,
        "lon": -14.87442043002077,
        "alt_km": 817.7855555173537,
        "timestamp": "2025-12-26T08:37:54.213433+00:00",
        "meta_object_name": "METEOR-M2 2",
        "meta_object_id": "2019-038A",
        "meta_epoch": "2025-12-26T05:23:41.422272",
        "meta_mean_motion": 14.24297591,
        "meta_eccentricity": 0.0001817,
        "meta_inclination": 98.899,
        "meta_ra_of_asc_node": 340.1194,
        "meta_arg_of_pericenter": 122.9507,
        "meta_mean_anomaly": 237.1847,
        "meta_ephemeris_type": 0,
        "meta_classification_type": "U",
        "meta_norad_cat_id": 44387,
        "meta_element_set_no": 999,
        "meta_rev_at_epoch": 33667,
        "meta_bstar": 0.00019431,
        "meta_mean_motion_dot": 4.03e-06,
        "meta_mean_motion_ddot": 0,
        "tle_line1": "1 44387U 19038A   25360.22478498  .00000403  00000+0  19431-3 0  9994",
        "tle_line2": "2 44387  98.8990 340.1194 0001817 122.9507 237.1847 14.24297591336677"
      },
      "geometry": {
        "type": "Point",
        "coordinates": [
          -14.87442043002077,
          -28.449068410603626
        ]
      }
    },
    {
      "type": "Feature",
      "properties": {
        "norad_id": 47719,
        "name": "ARKTIKA-M 1",
        "group": "weather",
        "lat": 58.503882374529304,
        "lon": -153.39149142874055,
        "alt_km": 34160.616829790284,
        "timestamp": "2025-12-26T08:37:54.213446+00:00",
        "meta_object_name": "ARKTIKA-M 1",
        "meta_object_id": "2021-016A",
        "meta_epoch": "2025-12-25T00:52:45.922368",
        "meta_mean_motion": 2.00630507,
        "meta_eccentricity": 0.7210339,
        "meta_inclination": 63.177,
        "meta_ra_of_asc_node": 82.3163,
        "meta_arg_of_pericenter": 269.1694,
        "meta_mean_anomaly": 15.5374,
        "meta_ephemeris_type": 0,
        "meta_classification_type": "U",
        "meta_norad_cat_id": 47719,
        "meta_element_set_no": 999,
        "meta_rev_at_epoch": 3529,
        "meta_bstar": 0,
        "meta_mean_motion_dot": -4.3e-07,
        "meta_mean_motion_ddot": 0,
        "tle_line1": "1 47719U 21016A   25359.03664262 -.00000043  00000+0  00000+0 0  9997",
        "tle_line2": "2 47719  63.1770  82.3163 7210339 269.1694  15.5374  2.00630507 35296"
      },
      "geometry": {
        "type": "Point",
        "coordinates": [
          -153.39149142874055,
          58.503882374529304
        ]
      }
    },
    {
      "type": "Feature",
      "properties": {
        "norad_id": 49008,
        "name": "FENGYUN 3E",
        "group": "weather",
        "lat": 72.02399278970354,
        "lon": -27.611699559907482,
        "alt_km": 819.05476323726,
        "timestamp": "2025-12-26T08:37:54.213457+00:00",
        "meta_object_name": "FENGYUN 3E",
        "meta_object_id": "2021-062A",
        "meta_epoch": "2025-12-26T04:54:03.112416",
        "meta_mean_motion": 14.19882439,
        "meta_eccentricity": 0.0001002,
        "meta_inclination": 98.7479,
        "meta_ra_of_asc_node": 0.5656,
        "meta_arg_of_pericenter": 186.6013,
        "meta_mean_anomaly": 173.515,
        "meta_ephemeris_type": 0,
        "meta_classification_type": "U",
        "meta_norad_cat_id": 49008,
        "meta_element_set_no": 999,
        "meta_rev_at_epoch": 23203,
        "meta_bstar": 0.00017364,
        "meta_mean_motion_dot": 3.24e-06,
        "meta_mean_motion_ddot": 0,
        "tle_line1": "1 49008U 21062A   25360.20420269  .00000324  00000+0  17364-3 0  9995",
        "tle_line2": "2 49008  98.7479   0.5656 0001002 186.6013 173.5150 14.19882439232038"
      },
      "geometry": {
        "type": "Point",
        "coordinates": [
          -27.611699559907482,
          72.02399278970354
        ]
      }
    },
    {
      "type": "Feature",
      "properties": {
        "norad_id": 51850,
        "name": "GOES 18",
        "group": "weather",
        "lat": -0.008736105031082105,
        "lon": 87.57456304349024,
        "alt_km": 35787.51543358802,
        "timestamp": "2025-12-26T08:37:54.213471+00:00",
        "meta_object_name": "GOES 18",
        "meta_object_id": "2022-021A",
        "meta_epoch": "2025-12-26T04:21:57.748032",
        "meta_mean_motion": 1.00271511,
        "meta_eccentricity": 4.55e-05,
        "meta_inclination": 0.0096,
        "meta_ra_of_asc_node": 172.4239,
        "meta_arg_of_pericenter": 139.8311,
        "meta_mean_anomaly": 71.1627,
        "meta_ephemeris_type": 0,
        "meta_classification_type": "U",
        "meta_norad_cat_id": 51850,
        "meta_element_set_no": 999,
        "meta_rev_at_epoch": 485,
        "meta_bstar": 0,
        "meta_mean_motion_dot": 1.18e-06,
        "meta_mean_motion_ddot": 0,
        "tle_line1": "1 51850U 22021A   25360.18191838  .00000118  00000+0  00000+0 0  9999",
        "tle_line2": "2 51850   0.0096 172.4239 0000455 139.8311  71.1627  1.00271511  4853"
      },
      "geometry": {
        "type": "Point",
        "coordinates": [
          87.57456304349024,
          -0.008736105031082105
        ]
      }
    },
    {
      "type": "Feature",
      "properties": {
        "norad_id": 54234,
        "name": "NOAA 21 (JPSS-2)",
        "group": "weather",
        "lat": 61.9764695282822,
        "lon": -80.31692207876839,
        "alt_km": 820.2014151839139,
        "timestamp": "2025-12-26T08:37:54.213482+00:00",
        "meta_object_name": "NOAA 21 (JPSS-2)",
        "meta_object_id": "2022-150A",
        "meta_epoch": "2025-12-26T03:15:35.464032",
        "meta_mean_motion": 14.19527747,
        "meta_eccentricity": 0.0001594,
        "meta_inclination": 98.7479,
        "meta_ra_of_asc_node": 296.278,
        "meta_arg_of_pericenter": 10.219,
        "meta_mean_anomaly": 349.9018,
        "meta_ephemeris_type": 0,
        "meta_classification_type": "U",
        "meta_norad_cat_id": 54234,
        "meta_element_set_no": 999,
        "meta_rev_at_epoch": 16199,
        "meta_bstar": 6.753e-05,
        "meta_mean_motion_dot": 9.8e-07,
        "meta_mean_motion_ddot": 0,
        "tle_line1": "1 54234U 22150A   25360.13582713  .00000098  00000+0  67530-4 0  9995",
        "tle_line2": "2 54234  98.7479 296.2780 0001594  10.2190 349.9018 14.19527747161997"
      },
      "geometry": {
        "type": "Point",
        "coordinates": [
          -80.31692207876839,
          61.9764695282822
        ]
      }
    },
    {
      "type": "Feature",
      "properties": {
        "norad_id": 54743,
        "name": "METEOSAT-12 (MTG-I1)",
        "group": "weather",
        "lat": -0.2318367644222923,
        "lon": -135.76422035696413,
        "alt_km": 35781.15812226746,
        "timestamp": "2025-12-26T08:37:54.213493+00:00",
        "meta_object_name": "METEOSAT-12 (MTG-I1)",
        "meta_object_id": "2022-170C",
        "meta_epoch": "2025-12-25T22:09:38.747232",
        "meta_mean_motion": 1.00270908,
        "meta_eccentricity": 0.0001678,
        "meta_inclination": 0.7005,
        "meta_ra_of_asc_node": 25.8079,
        "meta_arg_of_pericenter": 241.4995,
        "meta_mean_anomaly": 159.4565,
        "meta_ephemeris_type": 0,
        "meta_classification_type": "U",
        "meta_norad_cat_id": 54743,
        "meta_element_set_no": 999,
        "meta_rev_at_epoch": 1124,
        "meta_bstar": 0,
        "meta_mean_motion_dot": 1.4e-07,
        "meta_mean_motion_ddot": 0,
        "tle_line1": "1 54743U 22170C   25359.92336513  .00000014  00000+0  00000+0 0  9994",
        "tle_line2": "2 54743   0.7005  25.8079 0001678 241.4995 159.4565  1.00270908 11244"
      },
      "geometry": {
        "type": "Point",
        "coordinates": [
          -135.76422035696413,
          -0.2318367644222923
        ]
      }
    }
  ]
}